COSMOS 2361 [-]         
1 25590U 98076A   23052.87629424  .00000065  00000+0  54327-4 0  9990
2 25590  82.9358  21.7786 0030325 233.8424 185.4251 13.73046503210469
COSMOS 2378 [-]         
1 26818U 01023A   23053.49462800  .00000053  00000+0  40007-4 0  9999
2 26818  82.9269  38.9035 0032998 176.3699 299.0427 13.73989204 88648
COSMOS 2389 [-]         
1 27436U 02026A   23053.33308103  .00000087  00000+0  74529-4 0  9991
2 27436  82.9550 345.0958 0047376  39.7939  74.7914 13.74998621 40763
COSMOS 2398 [-]         
1 27818U 03023A   23052.79935311  .00000093  00000+0  84499-4 0  9993
2 27818  82.9494 307.8980 0032678  79.7671 345.1130 13.72232887987589
COSMOS 2407 [+]         
1 28380U 04028A   23053.07812937  .00000092  00000+0  78356-4 0  9998
2 28380  82.9569 251.6053 0040096  40.9147 126.4243 13.76138521933484
COSMOS 2414 [+]         
1 28521U 05002A   23053.01923630  .00000089  00000+0  61405-4 0  9998
2 28521  82.9467 239.5346 0040223 180.8289 179.2815 13.87686571916163
COSMOS 2429 [-]         
1 32052U 07038A   23053.41032679  .00000063  00000+0  49538-4 0  9996
2 32052  82.9827  18.1371 0038971  18.3840 341.8714 13.74985767775344
COSMOS 2454 [-]         
1 35635U 09039A   23052.86926719  .00000097  00000+0  66011-4 0  9996
2 35635  82.9544 225.5313 0020364 123.0851 347.7752 13.89715595689148
COSMOS 2463 [+]         
1 36519U 10017A   23052.81661455  .00000064  00000+0  54836-4 0  9990
2 36519  82.9574  59.6472 0034835 250.4664 284.3995 13.71495323641878
